[{"OBJECT_NAME":"ONEWEB-0342","OBJECT_ID":"2021-083Y","EPOCH":"2026-03-09T15:43:04.954080","MEAN_MOTION":13.20770626,"ECCENTRICITY":0.00016801,"INCLINATION":87.9174,"RA_OF_ASC_NODE":294.3102,"ARG_OF_PERICENTER":90.1608,"MEAN_ANOMALY":269.9717,"EPHEMERIS_TYPE":0,"CLASSIFICATION_TYPE":"U","NORAD_CAT_ID":49208,"ELEMENT_SET_NO":999,"REV_AT_EPOCH":22364,"BSTAR":-0.00039600067,"MEAN_MOTION_DOT":-1.48e-6,"MEAN_MOTION_DDOT":0},{"OBJECT_NAME":"COSMOS 970 DEB","OBJECT_ID":"1977-121CM","EPOCH":"2026-02-22T21:19:45.581664","MEAN_MOTION":13.32822051,"ECCENTRICITY":0.0101041,"INCLINATION":65.9388,"RA_OF_ASC_NODE":282.7741,"ARG_OF_PERICENTER":316.5081,"MEAN_ANOMALY":61.0116,"EPHEMERIS_TYPE":0,"CLASSIFICATION_TYPE":"U","NORAD_CAT_ID":64976,"ELEMENT_SET_NO":999,"REV_AT_EPOCH":59179,"BSTAR":0.00050603,"MEAN_MOTION_DOT":1.83e-6,"MEAN_MOTION_DDOT":0}]
